[
  {
    "pk": "aa",
    "model": "languages_plus.language",
    "fields": {
      "family": "Afro-Asiatic",
      "iso_639_2T": "aar",
      "iso_639_3": "aar",
      "notes": "",
      "name_en": "Afar",
      "iso_639_2B": "aar",
      "name_native": "Afaraf"
    }
  },
  {
    "pk": "ab",
    "model": "languages_plus.language",
    "fields": {
      "family": "Northwest Caucasian",
      "iso_639_2T": "abk",
      "iso_639_3": "abk",
      "notes": "",
      "name_en": "Abkhaz",
      "iso_639_2B": "abk",
      "name_native": "\u0430\u04a7\u0441\u0443\u0430 \u0431\u044b\u0437\u0448\u04d9\u0430, \u0430\u04a7\u0441\u0448\u04d9\u0430"
    }
  },
  {
    "pk": "ae",
    "model": "languages_plus.language",
    "fields": {
      "family": "Indo-European",
      "iso_639_2T": "ave",
      "iso_639_3": "ave",
      "notes": "ancient",
      "name_en": "Avestan",
      "iso_639_2B": "ave",
      "name_native": "avesta"
    }
  },
  {
    "pk": "af",
    "model": "languages_plus.language",
    "fields": {
      "family": "Indo-European",
      "iso_639_2T": "afr",
      "iso_639_3": "afr",
      "notes": "",
      "name_en": "Afrikaans",
      "iso_639_2B": "afr",
      "name_native": "Afrikaans"
    }
  },
  {
    "pk": "ak",
    "model": "languages_plus.language",
    "fields": {
      "family": "Niger\u2013Congo",
      "iso_639_2T": "aka",
      "iso_639_3": "aka",
      "notes": "macrolanguage, Twi is [tw/twi], Fanti is [fat]",
      "name_en": "Akan",
      "iso_639_2B": "aka",
      "name_native": "Akan"
    }
  },
  {
    "pk": "am",
    "model": "languages_plus.language",
    "fields": {
      "family": "Afro-Asiatic",
      "iso_639_2T": "amh",
      "iso_639_3": "amh",
      "notes": "",
      "name_en": "Amharic",
      "iso_639_2B": "amh",
      "name_native": "\u12a0\u121b\u122d\u129b"
    }
  },
  {
    "pk": "an",
    "model": "languages_plus.language",
    "fields": {
      "family": "Indo-European",
      "iso_639_2T": "arg",
      "iso_639_3": "arg",
      "notes": "",
      "name_en": "Aragonese",
      "iso_639_2B": "arg",
      "name_native": "aragon\u00e9s"
    }
  },
  {
    "pk": "ar",
    "model": "languages_plus.language",
    "fields": {
      "family": "Afro-Asiatic",
      "iso_639_2T": "ara",
      "iso_639_3": "ara",
      "notes": "macrolanguage, Standard Arabic is [arb]",
      "name_en": "Arabic",
      "iso_639_2B": "ara",
      "name_native": "\u0627\u0644\u0639\u0631\u0628\u064a\u0629"
    }
  },
  {
    "pk": "as",
    "model": "languages_plus.language",
    "fields": {
      "family": "Indo-European",
      "iso_639_2T": "asm",
      "iso_639_3": "asm",
      "notes": "",
      "name_en": "Assamese",
      "iso_639_2B": "asm",
      "name_native": "\u0985\u09b8\u09ae\u09c0\u09af\u09bc\u09be"
    }
  },
  {
    "pk": "av",
    "model": "languages_plus.language",
    "fields": {
      "family": "Northeast Caucasian",
      "iso_639_2T": "ava",
      "iso_639_3": "ava",
      "notes": "",
      "name_en": "Avaric",
      "iso_639_2B": "ava",
      "name_native": "\u0430\u0432\u0430\u0440 \u043c\u0430\u0446\u04c0, \u043c\u0430\u0433\u04c0\u0430\u0440\u0443\u043b \u043c\u0430\u0446\u04c0"
    }
  },
  {
    "pk": "ay",
    "model": "languages_plus.language",
    "fields": {
      "family": "Aymaran",
      "iso_639_2T": "aym",
      "iso_639_3": "aym",
      "notes": "macrolanguage",
      "name_en": "Aymara",
      "iso_639_2B": "aym",
      "name_native": "aymar aru"
    }
  },
  {
    "pk": "az",
    "model": "languages_plus.language",
    "fields": {
      "family": "Turkic",
      "iso_639_2T": "azb",
      "iso_639_3": "azb",
      "notes": "",
      "name_en": "South Azerbaijani",
      "iso_639_2B": "azb",
      "name_native": "\u062a\u0648\u0631\u06a9\u062c\u0647\u200e"
    }
  },
  {
    "pk": "ba",
    "model": "languages_plus.language",
    "fields": {
      "family": "Turkic",
      "iso_639_2T": "bak",
      "iso_639_3": "bak",
      "notes": "",
      "name_en": "Bashkir",
      "iso_639_2B": "bak",
      "name_native": "\u0431\u0430\u0448\u04a1\u043e\u0440\u0442 \u0442\u0435\u043b\u0435"
    }
  },
  {
    "pk": "be",
    "model": "languages_plus.language",
    "fields": {
      "family": "Indo-European",
      "iso_639_2T": "bel",
      "iso_639_3": "bel",
      "notes": "",
      "name_en": "Belarusian",
      "iso_639_2B": "bel",
      "name_native": "\u0431\u0435\u043b\u0430\u0440\u0443\u0441\u043a\u0430\u044f \u043c\u043e\u0432\u0430"
    }
  },
  {
    "pk": "bg",
    "model": "languages_plus.language",
    "fields": {
      "family": "Indo-European",
      "iso_639_2T": "bul",
      "iso_639_3": "bul",
      "notes": "",
      "name_en": "Bulgarian",
      "iso_639_2B": "bul",
      "name_native": "\u0431\u044a\u043b\u0433\u0430\u0440\u0441\u043a\u0438 \u0435\u0437\u0438\u043a"
    }
  },
  {
    "pk": "bh",
    "model": "languages_plus.language",
    "fields": {
      "family": "Indo-European",
      "iso_639_2T": "bih",
      "iso_639_3": "\u2013",
      "notes": "Collective language code for Bhojpuri, Magahi, and Maithili",
      "name_en": "Bihari",
      "iso_639_2B": "bih",
      "name_native": "\u092d\u094b\u091c\u092a\u0941\u0930\u0940"
    }
  },
  {
    "pk": "bi",
    "model": "languages_plus.language",
    "fields": {
      "family": "Creole",
      "iso_639_2T": "bis",
      "iso_639_3": "bis",
      "notes": "",
      "name_en": "Bislama",
      "iso_639_2B": "bis",
      "name_native": "Bislama"
    }
  },
  {
    "pk": "bm",
    "model": "languages_plus.language",
    "fields": {
      "family": "Niger\u2013Congo",
      "iso_639_2T": "bam",
      "iso_639_3": "bam",
      "notes": "",
      "name_en": "Bambara",
      "iso_639_2B": "bam",
      "name_native": "bamanankan"
    }
  },
  {
    "pk": "bn",
    "model": "languages_plus.language",
    "fields": {
      "family": "Indo-European",
      "iso_639_2T": "ben",
      "iso_639_3": "ben",
      "notes": "",
      "name_en": "Bengali; Bangla",
      "iso_639_2B": "ben",
      "name_native": "\u09ac\u09be\u0982\u09b2\u09be"
    }
  },
  {
    "pk": "bo",
    "model": "languages_plus.language",
    "fields": {
      "family": "Sino-Tibetan",
      "iso_639_2T": "bod",
      "iso_639_3": "bod",
      "notes": "",
      "name_en": "Tibetan Standard, Tibetan, Central",
      "iso_639_2B": "tib",
      "name_native": "\u0f56\u0f7c\u0f51\u0f0b\u0f61\u0f72\u0f42"
    }
  },
  {
    "pk": "br",
    "model": "languages_plus.language",
    "fields": {
      "family": "Indo-European",
      "iso_639_2T": "bre",
      "iso_639_3": "bre",
      "notes": "",
      "name_en": "Breton",
      "iso_639_2B": "bre",
      "name_native": "brezhoneg"
    }
  },
  {
    "pk": "bs",
    "model": "languages_plus.language",
    "fields": {
      "family": "Indo-European",
      "iso_639_2T": "bos",
      "iso_639_3": "bos",
      "notes": "",
      "name_en": "Bosnian",
      "iso_639_2B": "bos",
      "name_native": "bosanski jezik"
    }
  },
  {
    "pk": "ca",
    "model": "languages_plus.language",
    "fields": {
      "family": "Indo-European",
      "iso_639_2T": "cat",
      "iso_639_3": "cat",
      "notes": "",
      "name_en": "Catalan; Valencian",
      "iso_639_2B": "cat",
      "name_native": "catal\u00e0, valenci\u00e0"
    }
  },
  {
    "pk": "ce",
    "model": "languages_plus.language",
    "fields": {
      "family": "Northeast Caucasian",
      "iso_639_2T": "che",
      "iso_639_3": "che",
      "notes": "",
      "name_en": "Chechen",
      "iso_639_2B": "che",
      "name_native": "\u043d\u043e\u0445\u0447\u0438\u0439\u043d \u043c\u043e\u0442\u0442"
    }
  },
  {
    "pk": "ch",
    "model": "languages_plus.language",
    "fields": {
      "family": "Austronesian",
      "iso_639_2T": "cha",
      "iso_639_3": "cha",
      "notes": "",
      "name_en": "Chamorro",
      "iso_639_2B": "cha",
      "name_native": "Chamoru"
    }
  },
  {
    "pk": "co",
    "model": "languages_plus.language",
    "fields": {
      "family": "Indo-European",
      "iso_639_2T": "cos",
      "iso_639_3": "cos",
      "notes": "",
      "name_en": "Corsican",
      "iso_639_2B": "cos",
      "name_native": "corsu, lingua corsa"
    }
  },
  {
    "pk": "cr",
    "model": "languages_plus.language",
    "fields": {
      "family": "Algonquian",
      "iso_639_2T": "cre",
      "iso_639_3": "cre",
      "notes": "macrolanguage",
      "name_en": "Cree",
      "iso_639_2B": "cre",
      "name_native": "\u14c0\u1426\u1403\u152d\u140d\u140f\u1423"
    }
  },
  {
    "pk": "cs",
    "model": "languages_plus.language",
    "fields": {
      "family": "Indo-European",
      "iso_639_2T": "ces",
      "iso_639_3": "ces",
      "notes": "",
      "name_en": "Czech",
      "iso_639_2B": "cze",
      "name_native": "\u010de\u0161tina, \u010desk\u00fd jazyk"
    }
  },
  {
    "pk": "cu",
    "model": "languages_plus.language",
    "fields": {
      "family": "Indo-European",
      "iso_639_2T": "chu",
      "iso_639_3": "chu",
      "notes": "ancient, in use by Orthodox Church",
      "name_en": "Old Church Slavonic, Church Slavonic, Old Bulgarian",
      "iso_639_2B": "chu",
      "name_native": "\u0469\u0437\u044b\u043a\u044a \u0441\u043b\u043e\u0432\u0463\u043d\u044c\u0441\u043a\u044a"
    }
  },
  {
    "pk": "cv",
    "model": "languages_plus.language",
    "fields": {
      "family": "Turkic",
      "iso_639_2T": "chv",
      "iso_639_3": "chv",
      "notes": "",
      "name_en": "Chuvash",
      "iso_639_2B": "chv",
      "name_native": "\u0447\u04d1\u0432\u0430\u0448 \u0447\u04d7\u043b\u0445\u0438"
    }
  },
  {
    "pk": "cy",
    "model": "languages_plus.language",
    "fields": {
      "family": "Indo-European",
      "iso_639_2T": "cym",
      "iso_639_3": "cym",
      "notes": "",
      "name_en": "Welsh",
      "iso_639_2B": "wel",
      "name_native": "Cymraeg"
    }
  },
  {
    "pk": "da",
    "model": "languages_plus.language",
    "fields": {
      "family": "Indo-European",
      "iso_639_2T": "dan",
      "iso_639_3": "dan",
      "notes": "",
      "name_en": "Danish",
      "iso_639_2B": "dan",
      "name_native": "dansk"
    }
  },
  {
    "pk": "de",
    "model": "languages_plus.language",
    "fields": {
      "family": "Indo-European",
      "iso_639_2T": "deu",
      "iso_639_3": "deu",
      "notes": "",
      "name_en": "German",
      "iso_639_2B": "ger",
      "name_native": "Deutsch"
    }
  },
  {
    "pk": "dv",
    "model": "languages_plus.language",
    "fields": {
      "family": "Indo-European",
      "iso_639_2T": "div",
      "iso_639_3": "div",
      "notes": "",
      "name_en": "Divehi; Dhivehi; Maldivian;",
      "iso_639_2B": "div",
      "name_native": "\u078b\u07a8\u0788\u07ac\u0780\u07a8"
    }
  },
  {
    "pk": "dz",
    "model": "languages_plus.language",
    "fields": {
      "family": "Sino-Tibetan",
      "iso_639_2T": "dzo",
      "iso_639_3": "dzo",
      "notes": "",
      "name_en": "Dzongkha",
      "iso_639_2B": "dzo",
      "name_native": "\u0f62\u0fab\u0f7c\u0f44\u0f0b\u0f41"
    }
  },
  {
    "pk": "ee",
    "model": "languages_plus.language",
    "fields": {
      "family": "Niger\u2013Congo",
      "iso_639_2T": "ewe",
      "iso_639_3": "ewe",
      "notes": "",
      "name_en": "Ewe",
      "iso_639_2B": "ewe",
      "name_native": "E\u028begbe"
    }
  },
  {
    "pk": "el",
    "model": "languages_plus.language",
    "fields": {
      "family": "Indo-European",
      "iso_639_2T": "ell",
      "iso_639_3": "ell",
      "notes": "",
      "name_en": "Greek, Modern",
      "iso_639_2B": "gre",
      "name_native": "\u03b5\u03bb\u03bb\u03b7\u03bd\u03b9\u03ba\u03ac"
    }
  },
  {
    "pk": "en",
    "model": "languages_plus.language",
    "fields": {
      "family": "Indo-European",
      "iso_639_2T": "eng",
      "iso_639_3": "eng",
      "notes": "",
      "name_en": "English",
      "iso_639_2B": "eng",
      "name_native": "English"
    }
  },
  {
    "pk": "eo",
    "model": "languages_plus.language",
    "fields": {
      "family": "Constructed",
      "iso_639_2T": "epo",
      "iso_639_3": "epo",
      "notes": "constructed, initiated from L.L. Zamenhof, 1887",
      "name_en": "Esperanto",
      "iso_639_2B": "epo",
      "name_native": "Esperanto"
    }
  },
  {
    "pk": "es",
    "model": "languages_plus.language",
    "fields": {
      "family": "Indo-European",
      "iso_639_2T": "spa",
      "iso_639_3": "spa",
      "notes": "",
      "name_en": "Spanish; Castilian",
      "iso_639_2B": "spa",
      "name_native": "espa\u00f1ol, castellano"
    }
  },
  {
    "pk": "et",
    "model": "languages_plus.language",
    "fields": {
      "family": "Uralic",
      "iso_639_2T": "est",
      "iso_639_3": "est",
      "notes": "macrolanguage",
      "name_en": "Estonian",
      "iso_639_2B": "est",
      "name_native": "eesti, eesti keel"
    }
  },
  {
    "pk": "eu",
    "model": "languages_plus.language",
    "fields": {
      "family": "Language isolate",
      "iso_639_2T": "eus",
      "iso_639_3": "eus",
      "notes": "",
      "name_en": "Basque",
      "iso_639_2B": "baq",
      "name_native": "euskara, euskera"
    }
  },
  {
    "pk": "fa",
    "model": "languages_plus.language",
    "fields": {
      "family": "Indo-European",
      "iso_639_2T": "fas",
      "iso_639_3": "fas",
      "notes": "macrolanguage",
      "name_en": "Persian (Farsi)",
      "iso_639_2B": "per",
      "name_native": "\u0641\u0627\u0631\u0633\u06cc"
    }
  },
  {
    "pk": "ff",
    "model": "languages_plus.language",
    "fields": {
      "family": "Niger\u2013Congo",
      "iso_639_2T": "ful",
      "iso_639_3": "ful",
      "notes": "macrolanguage",
      "name_en": "Fula; Fulah; Pulaar; Pular",
      "iso_639_2B": "ful",
      "name_native": "Fulfulde, Pulaar, Pular"
    }
  },
  {
    "pk": "fi",
    "model": "languages_plus.language",
    "fields": {
      "family": "Uralic",
      "iso_639_2T": "fin",
      "iso_639_3": "fin",
      "notes": "",
      "name_en": "Finnish",
      "iso_639_2B": "fin",
      "name_native": "suomi, suomen kieli"
    }
  },
  {
    "pk": "fj",
    "model": "languages_plus.language",
    "fields": {
      "family": "Austronesian",
      "iso_639_2T": "fij",
      "iso_639_3": "fij",
      "notes": "",
      "name_en": "Fijian",
      "iso_639_2B": "fij",
      "name_native": "vosa Vakaviti"
    }
  },
  {
    "pk": "fo",
    "model": "languages_plus.language",
    "fields": {
      "family": "Indo-European",
      "iso_639_2T": "fao",
      "iso_639_3": "fao",
      "notes": "",
      "name_en": "Faroese",
      "iso_639_2B": "fao",
      "name_native": "f\u00f8royskt"
    }
  },
  {
    "pk": "fr",
    "model": "languages_plus.language",
    "fields": {
      "family": "Indo-European",
      "iso_639_2T": "fra",
      "iso_639_3": "fra",
      "notes": "",
      "name_en": "French",
      "iso_639_2B": "fre",
      "name_native": "fran\u00e7ais, langue fran\u00e7aise"
    }
  },
  {
    "pk": "fy",
    "model": "languages_plus.language",
    "fields": {
      "family": "Indo-European",
      "iso_639_2T": "fry",
      "iso_639_3": "fry",
      "notes": "",
      "name_en": "Western Frisian",
      "iso_639_2B": "fry",
      "name_native": "Frysk"
    }
  },
  {
    "pk": "ga",
    "model": "languages_plus.language",
    "fields": {
      "family": "Indo-European",
      "iso_639_2T": "gle",
      "iso_639_3": "gle",
      "notes": "",
      "name_en": "Irish",
      "iso_639_2B": "gle",
      "name_native": "Gaeilge"
    }
  },
  {
    "pk": "gd",
    "model": "languages_plus.language",
    "fields": {
      "family": "Indo-European",
      "iso_639_2T": "gla",
      "iso_639_3": "gla",
      "notes": "",
      "name_en": "Scottish Gaelic; Gaelic",
      "iso_639_2B": "gla",
      "name_native": "G\u00e0idhlig"
    }
  },
  {
    "pk": "gl",
    "model": "languages_plus.language",
    "fields": {
      "family": "Indo-European",
      "iso_639_2T": "glg",
      "iso_639_3": "glg",
      "notes": "",
      "name_en": "Galician",
      "iso_639_2B": "glg",
      "name_native": "galego"
    }
  },
  {
    "pk": "gn",
    "model": "languages_plus.language",
    "fields": {
      "family": "Tupian",
      "iso_639_2T": "grn",
      "iso_639_3": "grn",
      "notes": "macrolanguage",
      "name_en": "Guaran\u00ed",
      "iso_639_2B": "grn",
      "name_native": "Ava\u00f1e'\u1ebd"
    }
  },
  {
    "pk": "gu",
    "model": "languages_plus.language",
    "fields": {
      "family": "Indo-European",
      "iso_639_2T": "guj",
      "iso_639_3": "guj",
      "notes": "",
      "name_en": "Gujarati",
      "iso_639_2B": "guj",
      "name_native": "\u0a97\u0ac1\u0a9c\u0ab0\u0abe\u0aa4\u0ac0"
    }
  },
  {
    "pk": "gv",
    "model": "languages_plus.language",
    "fields": {
      "family": "Indo-European",
      "iso_639_2T": "glv",
      "iso_639_3": "glv",
      "notes": "",
      "name_en": "Manx",
      "iso_639_2B": "glv",
      "name_native": "Gaelg, Gailck"
    }
  },
  {
    "pk": "ha",
    "model": "languages_plus.language",
    "fields": {
      "family": "Afro-Asiatic",
      "iso_639_2T": "hau",
      "iso_639_3": "hau",
      "notes": "",
      "name_en": "Hausa",
      "iso_639_2B": "hau",
      "name_native": "Hausa, \u0647\u064e\u0648\u064f\u0633\u064e"
    }
  },
  {
    "pk": "he",
    "model": "languages_plus.language",
    "fields": {
      "family": "Afro-Asiatic",
      "iso_639_2T": "heb",
      "iso_639_3": "heb",
      "notes": "",
      "name_en": "Hebrew (modern)",
      "iso_639_2B": "heb",
      "name_native": "\u05e2\u05d1\u05e8\u05d9\u05ea"
    }
  },
  {
    "pk": "hi",
    "model": "languages_plus.language",
    "fields": {
      "family": "Indo-European",
      "iso_639_2T": "hin",
      "iso_639_3": "hin",
      "notes": "",
      "name_en": "Hindi",
      "iso_639_2B": "hin",
      "name_native": "\u0939\u093f\u0928\u094d\u0926\u0940, \u0939\u093f\u0902\u0926\u0940"
    }
  },
  {
    "pk": "ho",
    "model": "languages_plus.language",
    "fields": {
      "family": "Austronesian",
      "iso_639_2T": "hmo",
      "iso_639_3": "hmo",
      "notes": "",
      "name_en": "Hiri Motu",
      "iso_639_2B": "hmo",
      "name_native": "Hiri Motu"
    }
  },
  {
    "pk": "hr",
    "model": "languages_plus.language",
    "fields": {
      "family": "Indo-European",
      "iso_639_2T": "hrv",
      "iso_639_3": "hrv",
      "notes": "",
      "name_en": "Croatian",
      "iso_639_2B": "hrv",
      "name_native": "hrvatski jezik"
    }
  },
  {
    "pk": "ht",
    "model": "languages_plus.language",
    "fields": {
      "family": "Creole",
      "iso_639_2T": "hat",
      "iso_639_3": "hat",
      "notes": "",
      "name_en": "Haitian; Haitian Creole",
      "iso_639_2B": "hat",
      "name_native": "Krey\u00f2l ayisyen"
    }
  },
  {
    "pk": "hu",
    "model": "languages_plus.language",
    "fields": {
      "family": "Uralic",
      "iso_639_2T": "hun",
      "iso_639_3": "hun",
      "notes": "",
      "name_en": "Hungarian",
      "iso_639_2B": "hun",
      "name_native": "magyar"
    }
  },
  {
    "pk": "hy",
    "model": "languages_plus.language",
    "fields": {
      "family": "Indo-European",
      "iso_639_2T": "hye",
      "iso_639_3": "hye",
      "notes": "",
      "name_en": "Armenian",
      "iso_639_2B": "arm",
      "name_native": "\u0540\u0561\u0575\u0565\u0580\u0565\u0576"
    }
  },
  {
    "pk": "hz",
    "model": "languages_plus.language",
    "fields": {
      "family": "Niger\u2013Congo",
      "iso_639_2T": "her",
      "iso_639_3": "her",
      "notes": "",
      "name_en": "Herero",
      "iso_639_2B": "her",
      "name_native": "Otjiherero"
    }
  },
  {
    "pk": "ia",
    "model": "languages_plus.language",
    "fields": {
      "family": "Constructed",
      "iso_639_2T": "ina",
      "iso_639_3": "ina",
      "notes": "constructed by International Auxiliary Language Association",
      "name_en": "Interlingua",
      "iso_639_2B": "ina",
      "name_native": "Interlingua"
    }
  },
  {
    "pk": "id",
    "model": "languages_plus.language",
    "fields": {
      "family": "Austronesian",
      "iso_639_2T": "ind",
      "iso_639_3": "ind",
      "notes": "Covered by macrolanguage [ms/msa]",
      "name_en": "Indonesian",
      "iso_639_2B": "ind",
      "name_native": "Bahasa Indonesia"
    }
  },
  {
    "pk": "ie",
    "model": "languages_plus.language",
    "fields": {
      "family": "Constructed",
      "iso_639_2T": "ile",
      "iso_639_3": "ile",
      "notes": "constructed by Edgar de Wahl, first published in 1922",
      "name_en": "Interlingue",
      "iso_639_2B": "ile",
      "name_native": "Originally called Occidental; then Interlingue after WWII"
    }
  },
  {
    "pk": "ig",
    "model": "languages_plus.language",
    "fields": {
      "family": "Niger\u2013Congo",
      "iso_639_2T": "ibo",
      "iso_639_3": "ibo",
      "notes": "",
      "name_en": "Igbo",
      "iso_639_2B": "ibo",
      "name_native": "As\u1ee5s\u1ee5 Igbo"
    }
  },
  {
    "pk": "ii",
    "model": "languages_plus.language",
    "fields": {
      "family": "Sino-Tibetan",
      "iso_639_2T": "iii",
      "iso_639_3": "iii",
      "notes": "Standard form of Yi languages",
      "name_en": "Nuosu",
      "iso_639_2B": "iii",
      "name_native": "\ua188\ua320\ua4bf Nuosuhxop"
    }
  },
  {
    "pk": "ik",
    "model": "languages_plus.language",
    "fields": {
      "family": "Eskimo\u2013Aleut",
      "iso_639_2T": "ipk",
      "iso_639_3": "ipk",
      "notes": "macrolanguage",
      "name_en": "Inupiaq",
      "iso_639_2B": "ipk",
      "name_native": "I\u00f1upiaq, I\u00f1upiatun"
    }
  },
  {
    "pk": "io",
    "model": "languages_plus.language",
    "fields": {
      "family": "Constructed",
      "iso_639_2T": "ido",
      "iso_639_3": "ido",
      "notes": "constructed by De Beaufront, 1907, as variation of Esperanto",
      "name_en": "Ido",
      "iso_639_2B": "ido",
      "name_native": "Ido"
    }
  },
  {
    "pk": "is",
    "model": "languages_plus.language",
    "fields": {
      "family": "Indo-European",
      "iso_639_2T": "isl",
      "iso_639_3": "isl",
      "notes": "",
      "name_en": "Icelandic",
      "iso_639_2B": "ice",
      "name_native": "\u00cdslenska"
    }
  },
  {
    "pk": "it",
    "model": "languages_plus.language",
    "fields": {
      "family": "Indo-European",
      "iso_639_2T": "ita",
      "iso_639_3": "ita",
      "notes": "",
      "name_en": "Italian",
      "iso_639_2B": "ita",
      "name_native": "italiano"
    }
  },
  {
    "pk": "iu",
    "model": "languages_plus.language",
    "fields": {
      "family": "Eskimo\u2013Aleut",
      "iso_639_2T": "iku",
      "iso_639_3": "iku",
      "notes": "macrolanguage",
      "name_en": "Inuktitut",
      "iso_639_2B": "iku",
      "name_native": "\u1403\u14c4\u1483\u144e\u1450\u1466"
    }
  },
  {
    "pk": "ja",
    "model": "languages_plus.language",
    "fields": {
      "family": "Japonic",
      "iso_639_2T": "jpn",
      "iso_639_3": "jpn",
      "notes": "",
      "name_en": "Japanese",
      "iso_639_2B": "jpn",
      "name_native": "\u65e5\u672c\u8a9e (\u306b\u307b\u3093\u3054)"
    }
  },
  {
    "pk": "jv",
    "model": "languages_plus.language",
    "fields": {
      "family": "Austronesian",
      "iso_639_2T": "jav",
      "iso_639_3": "jav",
      "notes": "",
      "name_en": "Javanese",
      "iso_639_2B": "jav",
      "name_native": "basa Jawa"
    }
  },
  {
    "pk": "ka",
    "model": "languages_plus.language",
    "fields": {
      "family": "South Caucasian",
      "iso_639_2T": "kat",
      "iso_639_3": "kat",
      "notes": "",
      "name_en": "Georgian",
      "iso_639_2B": "geo",
      "name_native": "\u10e5\u10d0\u10e0\u10d7\u10e3\u10da\u10d8"
    }
  },
  {
    "pk": "kg",
    "model": "languages_plus.language",
    "fields": {
      "family": "Niger\u2013Congo",
      "iso_639_2T": "kon",
      "iso_639_3": "kon",
      "notes": "macrolanguage",
      "name_en": "Kongo",
      "iso_639_2B": "kon",
      "name_native": "KiKongo"
    }
  },
  {
    "pk": "ki",
    "model": "languages_plus.language",
    "fields": {
      "family": "Niger\u2013Congo",
      "iso_639_2T": "kik",
      "iso_639_3": "kik",
      "notes": "",
      "name_en": "Kikuyu, Gikuyu",
      "iso_639_2B": "kik",
      "name_native": "G\u0129k\u0169y\u0169"
    }
  },
  {
    "pk": "kj",
    "model": "languages_plus.language",
    "fields": {
      "family": "Niger\u2013Congo",
      "iso_639_2T": "kua",
      "iso_639_3": "kua",
      "notes": "",
      "name_en": "Kwanyama, Kuanyama",
      "iso_639_2B": "kua",
      "name_native": "Kuanyama"
    }
  },
  {
    "pk": "kk",
    "model": "languages_plus.language",
    "fields": {
      "family": "Turkic",
      "iso_639_2T": "kaz",
      "iso_639_3": "kaz",
      "notes": "",
      "name_en": "Kazakh",
      "iso_639_2B": "kaz",
      "name_native": "\u049b\u0430\u0437\u0430\u049b \u0442\u0456\u043b\u0456"
    }
  },
  {
    "pk": "kl",
    "model": "languages_plus.language",
    "fields": {
      "family": "Eskimo\u2013Aleut",
      "iso_639_2T": "kal",
      "iso_639_3": "kal",
      "notes": "",
      "name_en": "Kalaallisut, Greenlandic",
      "iso_639_2B": "kal",
      "name_native": "kalaallisut, kalaallit oqaasii"
    }
  },
  {
    "pk": "km",
    "model": "languages_plus.language",
    "fields": {
      "family": "Austroasiatic",
      "iso_639_2T": "khm",
      "iso_639_3": "khm",
      "notes": "a.k.a. Cambodian",
      "name_en": "Khmer",
      "iso_639_2B": "khm",
      "name_native": "\u1781\u17d2\u1798\u17c2\u179a, \u1781\u17c1\u1798\u179a\u1797\u17b6\u179f\u17b6, \u1797\u17b6\u179f\u17b6\u1781\u17d2\u1798\u17c2\u179a"
    }
  },
  {
    "pk": "kn",
    "model": "languages_plus.language",
    "fields": {
      "family": "Dravidian",
      "iso_639_2T": "kan",
      "iso_639_3": "kan",
      "notes": "",
      "name_en": "Kannada",
      "iso_639_2B": "kan",
      "name_native": "\u0c95\u0ca8\u0ccd\u0ca8\u0ca1"
    }
  },
  {
    "pk": "ko",
    "model": "languages_plus.language",
    "fields": {
      "family": "Language isolate",
      "iso_639_2T": "kor",
      "iso_639_3": "kor",
      "notes": "",
      "name_en": "Korean",
      "iso_639_2B": "kor",
      "name_native": "\ud55c\uad6d\uc5b4 (\u97d3\u570b\u8a9e), \uc870\uc120\uc5b4 (\u671d\u9bae\u8a9e)"
    }
  },
  {
    "pk": "kr",
    "model": "languages_plus.language",
    "fields": {
      "family": "Nilo-Saharan",
      "iso_639_2T": "kau",
      "iso_639_3": "kau",
      "notes": "macrolanguage",
      "name_en": "Kanuri",
      "iso_639_2B": "kau",
      "name_native": "Kanuri"
    }
  },
  {
    "pk": "ks",
    "model": "languages_plus.language",
    "fields": {
      "family": "Indo-European",
      "iso_639_2T": "kas",
      "iso_639_3": "kas",
      "notes": "",
      "name_en": "Kashmiri",
      "iso_639_2B": "kas",
      "name_native": "\u0915\u0936\u094d\u092e\u0940\u0930\u0940, \u0643\u0634\u0645\u064a\u0631\u064a\u200e"
    }
  },
  {
    "pk": "ku",
    "model": "languages_plus.language",
    "fields": {
      "family": "Indo-European",
      "iso_639_2T": "kur",
      "iso_639_3": "kur",
      "notes": "macrolanguage",
      "name_en": "Kurdish",
      "iso_639_2B": "kur",
      "name_native": "Kurd\u00ee, \u0643\u0648\u0631\u062f\u06cc\u200e"
    }
  },
  {
    "pk": "kv",
    "model": "languages_plus.language",
    "fields": {
      "family": "Uralic",
      "iso_639_2T": "kom",
      "iso_639_3": "kom",
      "notes": "macrolanguage",
      "name_en": "Komi",
      "iso_639_2B": "kom",
      "name_native": "\u043a\u043e\u043c\u0438 \u043a\u044b\u0432"
    }
  },
  {
    "pk": "kw",
    "model": "languages_plus.language",
    "fields": {
      "family": "Indo-European",
      "iso_639_2T": "cor",
      "iso_639_3": "cor",
      "notes": "",
      "name_en": "Cornish",
      "iso_639_2B": "cor",
      "name_native": "Kernewek"
    }
  },
  {
    "pk": "ky",
    "model": "languages_plus.language",
    "fields": {
      "family": "Turkic",
      "iso_639_2T": "kir",
      "iso_639_3": "kir",
      "notes": "",
      "name_en": "Kyrgyz",
      "iso_639_2B": "kir",
      "name_native": "\u041a\u044b\u0440\u0433\u044b\u0437\u0447\u0430, \u041a\u044b\u0440\u0433\u044b\u0437 \u0442\u0438\u043b\u0438"
    }
  },
  {
    "pk": "la",
    "model": "languages_plus.language",
    "fields": {
      "family": "Indo-European",
      "iso_639_2T": "lat",
      "iso_639_3": "lat",
      "notes": "ancient",
      "name_en": "Latin",
      "iso_639_2B": "lat",
      "name_native": "latine, lingua latina"
    }
  },
  {
    "pk": "lb",
    "model": "languages_plus.language",
    "fields": {
      "family": "Indo-European",
      "iso_639_2T": "ltz",
      "iso_639_3": "ltz",
      "notes": "",
      "name_en": "Luxembourgish, Letzeburgesch",
      "iso_639_2B": "ltz",
      "name_native": "L\u00ebtzebuergesch"
    }
  },
  {
    "pk": "lg",
    "model": "languages_plus.language",
    "fields": {
      "family": "Niger\u2013Congo",
      "iso_639_2T": "lug",
      "iso_639_3": "lug",
      "notes": "",
      "name_en": "Ganda",
      "iso_639_2B": "lug",
      "name_native": "Luganda"
    }
  },
  {
    "pk": "li",
    "model": "languages_plus.language",
    "fields": {
      "family": "Indo-European",
      "iso_639_2T": "lim",
      "iso_639_3": "lim",
      "notes": "",
      "name_en": "Limburgish, Limburgan, Limburger",
      "iso_639_2B": "lim",
      "name_native": "Limburgs"
    }
  },
  {
    "pk": "ln",
    "model": "languages_plus.language",
    "fields": {
      "family": "Niger\u2013Congo",
      "iso_639_2T": "lin",
      "iso_639_3": "lin",
      "notes": "",
      "name_en": "Lingala",
      "iso_639_2B": "lin",
      "name_native": "Ling\u00e1la"
    }
  },
  {
    "pk": "lo",
    "model": "languages_plus.language",
    "fields": {
      "family": "Tai\u2013Kadai",
      "iso_639_2T": "lao",
      "iso_639_3": "lao",
      "notes": "",
      "name_en": "Lao",
      "iso_639_2B": "lao",
      "name_native": "\u0e9e\u0eb2\u0eaa\u0eb2\u0ea5\u0eb2\u0ea7"
    }
  },
  {
    "pk": "lt",
    "model": "languages_plus.language",
    "fields": {
      "family": "Indo-European",
      "iso_639_2T": "lit",
      "iso_639_3": "lit",
      "notes": "",
      "name_en": "Lithuanian",
      "iso_639_2B": "lit",
      "name_native": "lietuvi\u0173 kalba"
    }
  },
  {
    "pk": "lu",
    "model": "languages_plus.language",
    "fields": {
      "family": "Niger\u2013Congo",
      "iso_639_2T": "lub",
      "iso_639_3": "lub",
      "notes": "",
      "name_en": "Luba-Katanga",
      "iso_639_2B": "lub",
      "name_native": "Tshiluba"
    }
  },
  {
    "pk": "lv",
    "model": "languages_plus.language",
    "fields": {
      "family": "Indo-European",
      "iso_639_2T": "lav",
      "iso_639_3": "lav",
      "notes": "macrolanguage",
      "name_en": "Latvian",
      "iso_639_2B": "lav",
      "name_native": "latvie\u0161u valoda"
    }
  },
  {
    "pk": "mg",
    "model": "languages_plus.language",
    "fields": {
      "family": "Austronesian",
      "iso_639_2T": "mlg",
      "iso_639_3": "mlg",
      "notes": "macrolanguage",
      "name_en": "Malagasy",
      "iso_639_2B": "mlg",
      "name_native": "fiteny malagasy"
    }
  },
  {
    "pk": "mh",
    "model": "languages_plus.language",
    "fields": {
      "family": "Austronesian",
      "iso_639_2T": "mah",
      "iso_639_3": "mah",
      "notes": "",
      "name_en": "Marshallese",
      "iso_639_2B": "mah",
      "name_native": "Kajin M\u0327aje\u013c"
    }
  },
  {
    "pk": "mi",
    "model": "languages_plus.language",
    "fields": {
      "family": "Austronesian",
      "iso_639_2T": "mri",
      "iso_639_3": "mri",
      "notes": "",
      "name_en": "M\u0101ori",
      "iso_639_2B": "mao",
      "name_native": "te reo M\u0101ori"
    }
  },
  {
    "pk": "mk",
    "model": "languages_plus.language",
    "fields": {
      "family": "Indo-European",
      "iso_639_2T": "mkd",
      "iso_639_3": "mkd",
      "notes": "",
      "name_en": "Macedonian",
      "iso_639_2B": "mac",
      "name_native": "\u043c\u0430\u043a\u0435\u0434\u043e\u043d\u0441\u043a\u0438 \u0458\u0430\u0437\u0438\u043a"
    }
  },
  {
    "pk": "ml",
    "model": "languages_plus.language",
    "fields": {
      "family": "Dravidian",
      "iso_639_2T": "mal",
      "iso_639_3": "mal",
      "notes": "",
      "name_en": "Malayalam",
      "iso_639_2B": "mal",
      "name_native": "\u0d2e\u0d32\u0d2f\u0d3e\u0d33\u0d02"
    }
  },
  {
    "pk": "mn",
    "model": "languages_plus.language",
    "fields": {
      "family": "Mongolic",
      "iso_639_2T": "mon",
      "iso_639_3": "mon",
      "notes": "macrolanguage",
      "name_en": "Mongolian",
      "iso_639_2B": "mon",
      "name_native": "\u043c\u043e\u043d\u0433\u043e\u043b"
    }
  },
  {
    "pk": "mr",
    "model": "languages_plus.language",
    "fields": {
      "family": "Indo-European",
      "iso_639_2T": "mar",
      "iso_639_3": "mar",
      "notes": "",
      "name_en": "Marathi (Mar\u0101\u1e6dh\u012b)",
      "iso_639_2B": "mar",
      "name_native": "\u092e\u0930\u093e\u0920\u0940"
    }
  },
  {
    "pk": "ms",
    "model": "languages_plus.language",
    "fields": {
      "family": "Austronesian",
      "iso_639_2T": "msa",
      "iso_639_3": "msa",
      "notes": "macrolanguage, Standard Malay is [zsm], Indonesian is [id/ind]",
      "name_en": "Malay",
      "iso_639_2B": "may",
      "name_native": "bahasa Melayu, \u0628\u0647\u0627\u0633 \u0645\u0644\u0627\u064a\u0648\u200e"
    }
  },
  {
    "pk": "mt",
    "model": "languages_plus.language",
    "fields": {
      "family": "Afro-Asiatic",
      "iso_639_2T": "mlt",
      "iso_639_3": "mlt",
      "notes": "",
      "name_en": "Maltese",
      "iso_639_2B": "mlt",
      "name_native": "Malti"
    }
  },
  {
    "pk": "my",
    "model": "languages_plus.language",
    "fields": {
      "family": "Sino-Tibetan",
      "iso_639_2T": "mya",
      "iso_639_3": "mya",
      "notes": "",
      "name_en": "Burmese",
      "iso_639_2B": "bur",
      "name_native": "\u1017\u1019\u102c\u1005\u102c"
    }
  },
  {
    "pk": "na",
    "model": "languages_plus.language",
    "fields": {
      "family": "Austronesian",
      "iso_639_2T": "nau",
      "iso_639_3": "nau",
      "notes": "",
      "name_en": "Nauru",
      "iso_639_2B": "nau",
      "name_native": "Ekakair\u0169 Naoero"
    }
  },
  {
    "pk": "nb",
    "model": "languages_plus.language",
    "fields": {
      "family": "Indo-European",
      "iso_639_2T": "nob",
      "iso_639_3": "nob",
      "notes": "Covered by macrolanguage [no/nor]",
      "name_en": "Norwegian Bokm\u00e5l",
      "iso_639_2B": "nob",
      "name_native": "Norsk bokm\u00e5l"
    }
  },
  {
    "pk": "nd",
    "model": "languages_plus.language",
    "fields": {
      "family": "Niger\u2013Congo",
      "iso_639_2T": "nde",
      "iso_639_3": "nde",
      "notes": "",
      "name_en": "North Ndebele",
      "iso_639_2B": "nde",
      "name_native": "isiNdebele"
    }
  },
  {
    "pk": "ne",
    "model": "languages_plus.language",
    "fields": {
      "family": "Indo-European",
      "iso_639_2T": "nep",
      "iso_639_3": "nep",
      "notes": "",
      "name_en": "Nepali",
      "iso_639_2B": "nep",
      "name_native": "\u0928\u0947\u092a\u093e\u0932\u0940"
    }
  },
  {
    "pk": "ng",
    "model": "languages_plus.language",
    "fields": {
      "family": "Niger\u2013Congo",
      "iso_639_2T": "ndo",
      "iso_639_3": "ndo",
      "notes": "",
      "name_en": "Ndonga",
      "iso_639_2B": "ndo",
      "name_native": "Owambo"
    }
  },
  {
    "pk": "nl",
    "model": "languages_plus.language",
    "fields": {
      "family": "Indo-European",
      "iso_639_2T": "nld",
      "iso_639_3": "nld",
      "notes": "",
      "name_en": "Dutch",
      "iso_639_2B": "dut",
      "name_native": "Nederlands, Vlaams"
    }
  },
  {
    "pk": "nn",
    "model": "languages_plus.language",
    "fields": {
      "family": "Indo-European",
      "iso_639_2T": "nno",
      "iso_639_3": "nno",
      "notes": "Covered by macrolanguage [no/nor]",
      "name_en": "Norwegian Nynorsk",
      "iso_639_2B": "nno",
      "name_native": "Norsk nynorsk"
    }
  },
  {
    "pk": "no",
    "model": "languages_plus.language",
    "fields": {
      "family": "Indo-European",
      "iso_639_2T": "nor",
      "iso_639_3": "nor",
      "notes": "macrolanguage, Bokm\u00e5l is [nb/nob], Nynorsk is [nn/nno]",
      "name_en": "Norwegian",
      "iso_639_2B": "nor",
      "name_native": "Norsk"
    }
  },
  {
    "pk": "nr",
    "model": "languages_plus.language",
    "fields": {
      "family": "Niger\u2013Congo",
      "iso_639_2T": "nbl",
      "iso_639_3": "nbl",
      "notes": "",
      "name_en": "South Ndebele",
      "iso_639_2B": "nbl",
      "name_native": "isiNdebele"
    }
  },
  {
    "pk": "nv",
    "model": "languages_plus.language",
    "fields": {
      "family": "Den\u00e9\u2013Yeniseian",
      "iso_639_2T": "nav",
      "iso_639_3": "nav",
      "notes": "",
      "name_en": "Navajo, Navaho",
      "iso_639_2B": "nav",
      "name_native": "Din\u00e9 bizaad, Din\u00e9k\u02bceh\u01f0\u00ed"
    }
  },
  {
    "pk": "ny",
    "model": "languages_plus.language",
    "fields": {
      "family": "Niger\u2013Congo",
      "iso_639_2T": "nya",
      "iso_639_3": "nya",
      "notes": "",
      "name_en": "Chichewa; Chewa; Nyanja",
      "iso_639_2B": "nya",
      "name_native": "chiChe\u0175a, chinyanja"
    }
  },
  {
    "pk": "oc",
    "model": "languages_plus.language",
    "fields": {
      "family": "Indo-European",
      "iso_639_2T": "oci",
      "iso_639_3": "oci",
      "notes": "",
      "name_en": "Occitan",
      "iso_639_2B": "oci",
      "name_native": "occitan, lenga d'\u00f2c"
    }
  },
  {
    "pk": "oj",
    "model": "languages_plus.language",
    "fields": {
      "family": "Algonquian",
      "iso_639_2T": "oji",
      "iso_639_3": "oji",
      "notes": "macrolanguage",
      "name_en": "Ojibwe, Ojibwa",
      "iso_639_2B": "oji",
      "name_native": "\u140a\u14c2\u1511\u14c8\u142f\u14a7\u140e\u14d0"
    }
  },
  {
    "pk": "om",
    "model": "languages_plus.language",
    "fields": {
      "family": "Afro-Asiatic",
      "iso_639_2T": "orm",
      "iso_639_3": "orm",
      "notes": "macrolanguage",
      "name_en": "Oromo",
      "iso_639_2B": "orm",
      "name_native": "Afaan Oromoo"
    }
  },
  {
    "pk": "or",
    "model": "languages_plus.language",
    "fields": {
      "family": "Indo-European",
      "iso_639_2T": "ori",
      "iso_639_3": "ori",
      "notes": "",
      "name_en": "Oriya",
      "iso_639_2B": "ori",
      "name_native": "\u0b13\u0b21\u0b3c\u0b3f\u0b06"
    }
  },
  {
    "pk": "os",
    "model": "languages_plus.language",
    "fields": {
      "family": "Indo-European",
      "iso_639_2T": "oss",
      "iso_639_3": "oss",
      "notes": "",
      "name_en": "Ossetian, Ossetic",
      "iso_639_2B": "oss",
      "name_native": "\u0438\u0440\u043e\u043d \u00e6\u0432\u0437\u0430\u0433"
    }
  },
  {
    "pk": "pa",
    "model": "languages_plus.language",
    "fields": {
      "family": "Indo-European",
      "iso_639_2T": "pan",
      "iso_639_3": "pan",
      "notes": "",
      "name_en": "Panjabi, Punjabi",
      "iso_639_2B": "pan",
      "name_native": "\u0a2a\u0a70\u0a1c\u0a3e\u0a2c\u0a40, \u067e\u0646\u062c\u0627\u0628\u06cc\u200e"
    }
  },
  {
    "pk": "pi",
    "model": "languages_plus.language",
    "fields": {
      "family": "Indo-European",
      "iso_639_2T": "pli",
      "iso_639_3": "pli",
      "notes": "ancient",
      "name_en": "P\u0101li",
      "iso_639_2B": "pli",
      "name_native": "\u092a\u093e\u0934\u093f"
    }
  },
  {
    "pk": "pl",
    "model": "languages_plus.language",
    "fields": {
      "family": "Indo-European",
      "iso_639_2T": "pol",
      "iso_639_3": "pol",
      "notes": "",
      "name_en": "Polish",
      "iso_639_2B": "pol",
      "name_native": "j\u0119zyk polski, polszczyzna"
    }
  },
  {
    "pk": "ps",
    "model": "languages_plus.language",
    "fields": {
      "family": "Indo-European",
      "iso_639_2T": "pus",
      "iso_639_3": "pus",
      "notes": "macrolanguage",
      "name_en": "Pashto, Pushto",
      "iso_639_2B": "pus",
      "name_native": "\u067e\u069a\u062a\u0648"
    }
  },
  {
    "pk": "pt",
    "model": "languages_plus.language",
    "fields": {
      "family": "Indo-European",
      "iso_639_2T": "por",
      "iso_639_3": "por",
      "notes": "",
      "name_en": "Portuguese",
      "iso_639_2B": "por",
      "name_native": "portugu\u00eas"
    }
  },
  {
    "pk": "qu",
    "model": "languages_plus.language",
    "fields": {
      "family": "Quechuan",
      "iso_639_2T": "que",
      "iso_639_3": "que",
      "notes": "macrolanguage",
      "name_en": "Quechua",
      "iso_639_2B": "que",
      "name_native": "Runa Simi, Kichwa"
    }
  },
  {
    "pk": "rm",
    "model": "languages_plus.language",
    "fields": {
      "family": "Indo-European",
      "iso_639_2T": "roh",
      "iso_639_3": "roh",
      "notes": "",
      "name_en": "Romansh",
      "iso_639_2B": "roh",
      "name_native": "rumantsch grischun"
    }
  },
  {
    "pk": "rn",
    "model": "languages_plus.language",
    "fields": {
      "family": "Niger\u2013Congo",
      "iso_639_2T": "run",
      "iso_639_3": "run",
      "notes": "",
      "name_en": "Kirundi",
      "iso_639_2B": "run",
      "name_native": "Ikirundi"
    }
  },
  {
    "pk": "ro",
    "model": "languages_plus.language",
    "fields": {
      "family": "Indo-European",
      "iso_639_2T": "ron",
      "iso_639_3": "ron",
      "notes": "[mo] for Moldavian has been withdrawn, recommending [ro] also for Moldavian",
      "name_en": "Romanian",
      "iso_639_2B": "rum",
      "name_native": "limba rom\u00e2n\u0103"
    }
  },
  {
    "pk": "ru",
    "model": "languages_plus.language",
    "fields": {
      "family": "Indo-European",
      "iso_639_2T": "rus",
      "iso_639_3": "rus",
      "notes": "",
      "name_en": "Russian",
      "iso_639_2B": "rus",
      "name_native": "\u0440\u0443\u0441\u0441\u043a\u0438\u0439 \u044f\u0437\u044b\u043a"
    }
  },
  {
    "pk": "rw",
    "model": "languages_plus.language",
    "fields": {
      "family": "Niger\u2013Congo",
      "iso_639_2T": "kin",
      "iso_639_3": "kin",
      "notes": "",
      "name_en": "Kinyarwanda",
      "iso_639_2B": "kin",
      "name_native": "Ikinyarwanda"
    }
  },
  {
    "pk": "sa",
    "model": "languages_plus.language",
    "fields": {
      "family": "Indo-European",
      "iso_639_2T": "san",
      "iso_639_3": "san",
      "notes": "ancient, still spoken",
      "name_en": "Sanskrit (Sa\u1e41sk\u1e5bta)",
      "iso_639_2B": "san",
      "name_native": "\u0938\u0902\u0938\u094d\u0915\u0943\u0924\u092e\u094d"
    }
  },
  {
    "pk": "sc",
    "model": "languages_plus.language",
    "fields": {
      "family": "Indo-European",
      "iso_639_2T": "srd",
      "iso_639_3": "srd",
      "notes": "macrolanguage",
      "name_en": "Sardinian",
      "iso_639_2B": "srd",
      "name_native": "sardu"
    }
  },
  {
    "pk": "sd",
    "model": "languages_plus.language",
    "fields": {
      "family": "Indo-European",
      "iso_639_2T": "snd",
      "iso_639_3": "snd",
      "notes": "",
      "name_en": "Sindhi",
      "iso_639_2B": "snd",
      "name_native": "\u0938\u093f\u0928\u094d\u0927\u0940, \u0633\u0646\u068c\u064a\u060c \u0633\u0646\u062f\u06be\u06cc\u200e"
    }
  },
  {
    "pk": "se",
    "model": "languages_plus.language",
    "fields": {
      "family": "Uralic",
      "iso_639_2T": "sme",
      "iso_639_3": "sme",
      "notes": "",
      "name_en": "Northern Sami",
      "iso_639_2B": "sme",
      "name_native": "Davvis\u00e1megiella"
    }
  },
  {
    "pk": "sg",
    "model": "languages_plus.language",
    "fields": {
      "family": "Creole",
      "iso_639_2T": "sag",
      "iso_639_3": "sag",
      "notes": "",
      "name_en": "Sango",
      "iso_639_2B": "sag",
      "name_native": "y\u00e2ng\u00e2 t\u00ee s\u00e4ng\u00f6"
    }
  },
  {
    "pk": "si",
    "model": "languages_plus.language",
    "fields": {
      "family": "Indo-European",
      "iso_639_2T": "sin",
      "iso_639_3": "sin",
      "notes": "",
      "name_en": "Sinhala, Sinhalese",
      "iso_639_2B": "sin",
      "name_native": "\u0dc3\u0dd2\u0d82\u0dc4\u0dbd"
    }
  },
  {
    "pk": "sk",
    "model": "languages_plus.language",
    "fields": {
      "family": "Indo-European",
      "iso_639_2T": "slk",
      "iso_639_3": "slk",
      "notes": "",
      "name_en": "Slovak",
      "iso_639_2B": "slo",
      "name_native": "sloven\u010dina, slovensk\u00fd jazyk"
    }
  },
  {
    "pk": "sl",
    "model": "languages_plus.language",
    "fields": {
      "family": "Indo-European",
      "iso_639_2T": "slv",
      "iso_639_3": "slv",
      "notes": "",
      "name_en": "Slovene",
      "iso_639_2B": "slv",
      "name_native": "slovenski jezik, sloven\u0161\u010dina"
    }
  },
  {
    "pk": "sm",
    "model": "languages_plus.language",
    "fields": {
      "family": "Austronesian",
      "iso_639_2T": "smo",
      "iso_639_3": "smo",
      "notes": "",
      "name_en": "Samoan",
      "iso_639_2B": "smo",
      "name_native": "gagana fa'a Samoa"
    }
  },
  {
    "pk": "sn",
    "model": "languages_plus.language",
    "fields": {
      "family": "Niger\u2013Congo",
      "iso_639_2T": "sna",
      "iso_639_3": "sna",
      "notes": "",
      "name_en": "Shona",
      "iso_639_2B": "sna",
      "name_native": "chiShona"
    }
  },
  {
    "pk": "so",
    "model": "languages_plus.language",
    "fields": {
      "family": "Afro-Asiatic",
      "iso_639_2T": "som",
      "iso_639_3": "som",
      "notes": "",
      "name_en": "Somali",
      "iso_639_2B": "som",
      "name_native": "Soomaaliga, af Soomaali"
    }
  },
  {
    "pk": "sq",
    "model": "languages_plus.language",
    "fields": {
      "family": "Indo-European",
      "iso_639_2T": "sqi",
      "iso_639_3": "sqi",
      "notes": "macrolanguage, \"Albanian Phylozone\" in 639-6",
      "name_en": "Albanian",
      "iso_639_2B": "alb",
      "name_native": "gjuha shqipe"
    }
  },
  {
    "pk": "sr",
    "model": "languages_plus.language",
    "fields": {
      "family": "Indo-European",
      "iso_639_2T": "srp",
      "iso_639_3": "srp",
      "notes": "The ISO 639-2/T code srp deprecated the ISO 639-2/B code scc[1]",
      "name_en": "Serbian",
      "iso_639_2B": "srp",
      "name_native": "\u0441\u0440\u043f\u0441\u043a\u0438 \u0458\u0435\u0437\u0438\u043a"
    }
  },
  {
    "pk": "ss",
    "model": "languages_plus.language",
    "fields": {
      "family": "Niger\u2013Congo",
      "iso_639_2T": "ssw",
      "iso_639_3": "ssw",
      "notes": "",
      "name_en": "Swati",
      "iso_639_2B": "ssw",
      "name_native": "SiSwati"
    }
  },
  {
    "pk": "st",
    "model": "languages_plus.language",
    "fields": {
      "family": "Niger\u2013Congo",
      "iso_639_2T": "sot",
      "iso_639_3": "sot",
      "notes": "",
      "name_en": "Southern Sotho",
      "iso_639_2B": "sot",
      "name_native": "Sesotho"
    }
  },
  {
    "pk": "su",
    "model": "languages_plus.language",
    "fields": {
      "family": "Austronesian",
      "iso_639_2T": "sun",
      "iso_639_3": "sun",
      "notes": "",
      "name_en": "Sundanese",
      "iso_639_2B": "sun",
      "name_native": "Basa Sunda"
    }
  },
  {
    "pk": "sv",
    "model": "languages_plus.language",
    "fields": {
      "family": "Indo-European",
      "iso_639_2T": "swe",
      "iso_639_3": "swe",
      "notes": "",
      "name_en": "Swedish",
      "iso_639_2B": "swe",
      "name_native": "Svenska"
    }
  },
  {
    "pk": "sw",
    "model": "languages_plus.language",
    "fields": {
      "family": "Niger\u2013Congo",
      "iso_639_2T": "swa",
      "iso_639_3": "swa",
      "notes": "macrolanguage",
      "name_en": "Swahili",
      "iso_639_2B": "swa",
      "name_native": "Kiswahili"
    }
  },
  {
    "pk": "ta",
    "model": "languages_plus.language",
    "fields": {
      "family": "Dravidian",
      "iso_639_2T": "tam",
      "iso_639_3": "tam",
      "notes": "",
      "name_en": "Tamil",
      "iso_639_2B": "tam",
      "name_native": "\u0ba4\u0bae\u0bbf\u0bb4\u0bcd"
    }
  },
  {
    "pk": "te",
    "model": "languages_plus.language",
    "fields": {
      "family": "Dravidian",
      "iso_639_2T": "tel",
      "iso_639_3": "tel",
      "notes": "",
      "name_en": "Telugu",
      "iso_639_2B": "tel",
      "name_native": "\u0c24\u0c46\u0c32\u0c41\u0c17\u0c41"
    }
  },
  {
    "pk": "tg",
    "model": "languages_plus.language",
    "fields": {
      "family": "Indo-European",
      "iso_639_2T": "tgk",
      "iso_639_3": "tgk",
      "notes": "",
      "name_en": "Tajik",
      "iso_639_2B": "tgk",
      "name_native": "\u0442\u043e\u04b7\u0438\u043a\u04e3, to\u011fik\u012b, \u062a\u0627\u062c\u06cc\u06a9\u06cc\u200e"
    }
  },
  {
    "pk": "th",
    "model": "languages_plus.language",
    "fields": {
      "family": "Tai\u2013Kadai",
      "iso_639_2T": "tha",
      "iso_639_3": "tha",
      "notes": "",
      "name_en": "Thai",
      "iso_639_2B": "tha",
      "name_native": "\u0e44\u0e17\u0e22"
    }
  },
  {
    "pk": "ti",
    "model": "languages_plus.language",
    "fields": {
      "family": "Afro-Asiatic",
      "iso_639_2T": "tir",
      "iso_639_3": "tir",
      "notes": "",
      "name_en": "Tigrinya",
      "iso_639_2B": "tir",
      "name_native": "\u1275\u130d\u122d\u129b"
    }
  },
  {
    "pk": "tk",
    "model": "languages_plus.language",
    "fields": {
      "family": "Turkic",
      "iso_639_2T": "tuk",
      "iso_639_3": "tuk",
      "notes": "",
      "name_en": "Turkmen",
      "iso_639_2B": "tuk",
      "name_native": "T\u00fcrkmen, \u0422\u04af\u0440\u043a\u043c\u0435\u043d"
    }
  },
  {
    "pk": "tl",
    "model": "languages_plus.language",
    "fields": {
      "family": "Austronesian",
      "iso_639_2T": "tgl",
      "iso_639_3": "tgl",
      "notes": "Note: Filipino (Pilipino) has the code [fil]",
      "name_en": "Tagalog",
      "iso_639_2B": "tgl",
      "name_native": "Wikang Tagalog, \u170f\u1712\u1703\u1705\u1714 \u1706\u1704\u170e\u1713\u1704\u1714"
    }
  },
  {
    "pk": "tn",
    "model": "languages_plus.language",
    "fields": {
      "family": "Niger\u2013Congo",
      "iso_639_2T": "tsn",
      "iso_639_3": "tsn",
      "notes": "",
      "name_en": "Tswana",
      "iso_639_2B": "tsn",
      "name_native": "Setswana"
    }
  },
  {
    "pk": "to",
    "model": "languages_plus.language",
    "fields": {
      "family": "Austronesian",
      "iso_639_2T": "ton",
      "iso_639_3": "ton",
      "notes": "",
      "name_en": "Tonga (Tonga Islands)",
      "iso_639_2B": "ton",
      "name_native": "faka Tonga"
    }
  },
  {
    "pk": "tr",
    "model": "languages_plus.language",
    "fields": {
      "family": "Turkic",
      "iso_639_2T": "tur",
      "iso_639_3": "tur",
      "notes": "",
      "name_en": "Turkish",
      "iso_639_2B": "tur",
      "name_native": "T\u00fcrk\u00e7e"
    }
  },
  {
    "pk": "ts",
    "model": "languages_plus.language",
    "fields": {
      "family": "Niger\u2013Congo",
      "iso_639_2T": "tso",
      "iso_639_3": "tso",
      "notes": "",
      "name_en": "Tsonga",
      "iso_639_2B": "tso",
      "name_native": "Xitsonga"
    }
  },
  {
    "pk": "tt",
    "model": "languages_plus.language",
    "fields": {
      "family": "Turkic",
      "iso_639_2T": "tat",
      "iso_639_3": "tat",
      "notes": "",
      "name_en": "Tatar",
      "iso_639_2B": "tat",
      "name_native": "\u0442\u0430\u0442\u0430\u0440 \u0442\u0435\u043b\u0435, tatar tele"
    }
  },
  {
    "pk": "tw",
    "model": "languages_plus.language",
    "fields": {
      "family": "Niger\u2013Congo",
      "iso_639_2T": "twi",
      "iso_639_3": "twi",
      "notes": "Covered by macrolanguage [ak/aka]",
      "name_en": "Twi",
      "iso_639_2B": "twi",
      "name_native": "Twi"
    }
  },
  {
    "pk": "ty",
    "model": "languages_plus.language",
    "fields": {
      "family": "Austronesian",
      "iso_639_2T": "tah",
      "iso_639_3": "tah",
      "notes": "One of the Reo M\u0101`ohi (languages of French Polynesia)",
      "name_en": "Tahitian",
      "iso_639_2B": "tah",
      "name_native": "Reo Tahiti"
    }
  },
  {
    "pk": "ug",
    "model": "languages_plus.language",
    "fields": {
      "family": "Turkic",
      "iso_639_2T": "uig",
      "iso_639_3": "uig",
      "notes": "",
      "name_en": "Uyghur, Uighur",
      "iso_639_2B": "uig",
      "name_native": "Uy\u01a3urq\u0259, \u0626\u06c7\u064a\u063a\u06c7\u0631\u0686\u06d5\u200e"
    }
  },
  {
    "pk": "uk",
    "model": "languages_plus.language",
    "fields": {
      "family": "Indo-European",
      "iso_639_2T": "ukr",
      "iso_639_3": "ukr",
      "notes": "",
      "name_en": "Ukrainian",
      "iso_639_2B": "ukr",
      "name_native": "\u0443\u043a\u0440\u0430\u0457\u043d\u0441\u044c\u043a\u0430 \u043c\u043e\u0432\u0430"
    }
  },
  {
    "pk": "ur",
    "model": "languages_plus.language",
    "fields": {
      "family": "Indo-European",
      "iso_639_2T": "urd",
      "iso_639_3": "urd",
      "notes": "",
      "name_en": "Urdu",
      "iso_639_2B": "urd",
      "name_native": "\u0627\u0631\u062f\u0648"
    }
  },
  {
    "pk": "uz",
    "model": "languages_plus.language",
    "fields": {
      "family": "Turkic",
      "iso_639_2T": "uzb",
      "iso_639_3": "uzb",
      "notes": "macrolanguage",
      "name_en": "Uzbek",
      "iso_639_2B": "uzb",
      "name_native": "O\u2018zbek, \u040e\u0437\u0431\u0435\u043a, \u0623\u06c7\u0632\u0628\u06d0\u0643\u200e"
    }
  },
  {
    "pk": "ve",
    "model": "languages_plus.language",
    "fields": {
      "family": "Niger\u2013Congo",
      "iso_639_2T": "ven",
      "iso_639_3": "ven",
      "notes": "",
      "name_en": "Venda",
      "iso_639_2B": "ven",
      "name_native": "Tshiven\u1e13a"
    }
  },
  {
    "pk": "vi",
    "model": "languages_plus.language",
    "fields": {
      "family": "Austroasiatic",
      "iso_639_2T": "vie",
      "iso_639_3": "vie",
      "notes": "",
      "name_en": "Vietnamese",
      "iso_639_2B": "vie",
      "name_native": "Ti\u1ebfng Vi\u1ec7t"
    }
  },
  {
    "pk": "vo",
    "model": "languages_plus.language",
    "fields": {
      "family": "Constructed",
      "iso_639_2T": "vol",
      "iso_639_3": "vol",
      "notes": "constructed",
      "name_en": "Volap\u00fck",
      "iso_639_2B": "vol",
      "name_native": "Volap\u00fck"
    }
  },
  {
    "pk": "wa",
    "model": "languages_plus.language",
    "fields": {
      "family": "Indo-European",
      "iso_639_2T": "wln",
      "iso_639_3": "wln",
      "notes": "",
      "name_en": "Walloon",
      "iso_639_2B": "wln",
      "name_native": "walon"
    }
  },
  {
    "pk": "wo",
    "model": "languages_plus.language",
    "fields": {
      "family": "Niger\u2013Congo",
      "iso_639_2T": "wol",
      "iso_639_3": "wol",
      "notes": "",
      "name_en": "Wolof",
      "iso_639_2B": "wol",
      "name_native": "Wollof"
    }
  },
  {
    "pk": "xh",
    "model": "languages_plus.language",
    "fields": {
      "family": "Niger\u2013Congo",
      "iso_639_2T": "xho",
      "iso_639_3": "xho",
      "notes": "",
      "name_en": "Xhosa",
      "iso_639_2B": "xho",
      "name_native": "isiXhosa"
    }
  },
  {
    "pk": "yi",
    "model": "languages_plus.language",
    "fields": {
      "family": "Indo-European",
      "iso_639_2T": "yid",
      "iso_639_3": "yid",
      "notes": "macrolanguage",
      "name_en": "Yiddish",
      "iso_639_2B": "yid",
      "name_native": "\u05d9\u05d9\u05b4\u05d3\u05d9\u05e9"
    }
  },
  {
    "pk": "yo",
    "model": "languages_plus.language",
    "fields": {
      "family": "Niger\u2013Congo",
      "iso_639_2T": "yor",
      "iso_639_3": "yor",
      "notes": "",
      "name_en": "Yoruba",
      "iso_639_2B": "yor",
      "name_native": "Yor\u00f9b\u00e1"
    }
  },
  {
    "pk": "za",
    "model": "languages_plus.language",
    "fields": {
      "family": "Tai\u2013Kadai",
      "iso_639_2T": "zha",
      "iso_639_3": "zha",
      "notes": "macrolanguage",
      "name_en": "Zhuang, Chuang",
      "iso_639_2B": "zha",
      "name_native": "Sa\u026f cue\u014b\u0185, Saw cuengh"
    }
  },
  {
    "pk": "zh",
    "model": "languages_plus.language",
    "fields": {
      "family": "Sino-Tibetan",
      "iso_639_2T": "zho",
      "iso_639_3": "zho",
      "notes": "macrolanguage",
      "name_en": "Chinese",
      "iso_639_2B": "chi",
      "name_native": "\u4e2d\u6587 (Zh\u014dngw\u00e9n), \u6c49\u8bed, \u6f22\u8a9e"
    }
  },
  {
    "pk": "zu",
    "model": "languages_plus.language",
    "fields": {
      "family": "Niger\u2013Congo",
      "iso_639_2T": "zul",
      "iso_639_3": "zul",
      "notes": "",
      "name_en": "Zulu",
      "iso_639_2B": "zul",
      "name_native": "isiZulu"
    }
  }
]
